C/2018 R3 (Lemmon),e,69.7179,324.6256,112.8750,1874,0.0000121,0.99931148,0.0000,06/07.1977/2019,2000,g  9.5,4.0
# From MPC112393
C/2018 R4 (Fuls),e,11.6832,298.4423,345.2047,313.3437,0.0001777,0.99454081,0.0000,03/03.6762/2018,2000,g 14.0,4.0
# From MPC114603
C/2018 R5 (Lemmon),e,103.7503,171.1395,178.0249,22.82337,0.0090393,0.84132469,2.9917,12/07.0/2019,2000,g 11.5,4.0
# From MPC118094
C/2018 U1 (Lemmon),h,11/02.7413/2021,108.3016,75.4772,180.3983,1.000378,4.995127,2000,5.0,4.0
# From MPC114604
C/2018 V1 (Machholz-Fujikawa-Iwamoto),h,12/03.5321/2018,144.0440,128.8516,88.8420,1.000501,0.386228,2000,12.0,4.0
# From MPC115884
C/2018 V2 (ATLAS),e,159.1114,356.7954,318.6803,25.44410,0.0076793,0.90271366,2.8799,12/07.0/2019,2000,g 15.0,4.0
# From MPC114604
P/2018 VN2 (Leonard),e,18.2471,226.5461,138.7287,4.065326,0.1202433,0.47806436,66.0951,12/07.0/2019,2000,g 15.0,4.0
# From MPC117070
A/2018 V3,e,164.9776,308.6572,3.4986,122.0383,0.0007311,0.98902417,0.0000,09/08.6968/2019,2000,g 15.7,2.0
# From MPC114604
C/2018 V4 (Africano),e,69.0048,78.3809,359.9837,212.4441,0.0003183,0.98494275,0.0000,03/01.5898/2019,2000,g 12.5,4.0
# From MPC114604
P/2018 V5 (Trujillo-Sheppard),e,10.5812,171.3045,260.7585,8.956705,0.0367690,0.47448442,15.8006,12/07.0/2019,2000,g 12.5,4.0
# From MPC115884
C/2018 W1 (Catalina),e,83.2737,233.5911,251.2567,21.81417,0.0096738,0.93764025,2.0232,12/07.0/2019,2000,g 15.7,2.0
# From MPC118094
C/2018 W2 (Africano),h,09/05.7313/2019,116.6153,181.8497,157.9753,1.000732,1.454685,2000,9.5,4.0
# From MPC115884
C/2018 X2 (Fitzsimmons),e,23.0698,340.8303,162.0506,151.8693,0.0005266,0.98600173,0.0000,07/08.5374/2019,2000,g 12.0,4.0
# From MPC114604
C/2018 X3 (PANSTARRS),e,43.3691,78.9236,359.8060,12.40157,0.0225678,0.78240818,7.7024,12/07.0/2019,2000,g 14.5,4.0
# From MPC118094
C/2018 Y1 (Iwamoto),e,160.4036,147.4929,358.0560,144.8455,0.0005654,0.99111656,0.0000,02/07.0342/2019,2000,g 11.5,4.0
# From MPC114605
P/2018 Y2 (Africano),e,11.6824,297.2656,162.4574,7.471078,0.0482646,0.47893899,16.3460,12/07.0/2019,2000,g 11.5,4.0
# From MPC114605
P/2019 A1 (PANSTARRS),e,13.7442,312.3014,150.8331,5.127047,0.0848991,0.56862181,35.8297,12/07.0/2019,2000,g 16.0,4.0
# From MPC114605
P/2019 A2 (ATLAS),e,14.8587,139.4616,324.1890,5.728866,0.0718788,0.38161960,27.3710,12/07.0/2019,2000,g 10.5,4.0
# From MPC114605
P/2019 A3 (PANSTARRS),e,15.3647,31.3246,325.4776,3.147569,0.1764986,0.26515665,86.8614,12/07.0/2019,2000,g 16.0,4.0
# From MPC114605
P/2019 A4 (PANSTARRS),e,13.3206,119.3012,341.5978,2.612689,0.2333848,0.08938367,85.8032,12/07.0/2019,2000,g 15.0,4.0
# From MPC114605
C/2019 A5 (PANSTARRS),e,67.5427,146.6204,356.0361,21.63278,0.0097957,0.70766900,1.7691,12/07.0/2019,2000,g  9.5,4.0
# From MPC114605
P/2019 A6 (Lemmon-PANSTARRS),e,33.2292,280.2743,156.2706,5.368033,0.0792467,0.63896689,36.8316,12/07.0/2019,2000,g 16.0,4.0
# From MPC114605
P/2019 A7 (PANSTARRS),e,17.7743,280.5247,119.3771,3.186780,0.1732511,0.16083107,121.0202,12/07.0/2019,2000,g 13.5,4.0
# From MPC115884
P/2019 A8 (PANSTARRS),e,2.9709,127.8671,21.6630,3.361593,0.1599139,0.44021384,73.6060,12/07.0/2019,2000,g 16.0,4.0
# From MPC118094
C/2019 A9 (PANSTARRS),e,84.3418,278.3684,237.8057,38.75912,0.0040845,0.96319701,0.5452,12/07.0/2019,2000,g 15.0,4.0
# From MPC114606
C/2019 B1 (Africano),e,123.3634,290.4352,174.8751,152.0254,0.0005258,0.98949466,0.0000,03/19.9097/2019,2000,g 16.0,4.0
# From MPC115885
P/2019 B2 (Groeller),e,16.8283,176.4574,358.7423,3.853046,0.1303160,0.37281625,23.7010,12/07.0/2019,2000,g 14.5,4.0
# From MPC115885
C/2019 B3 (PANSTARRS),h,01/19.4989/2021,66.5326,358.4140,263.8724,1.002965,6.824223,2000,5.5,4.0
# From MPC115885
A/2019 C1,e,36.0146,212.3991,319.1972,888.9208,0.0000372,0.99259663,0.0000,05/05.8095/2020,2000,g 10.0,4.0
# From MPC118094
C/2019 D1 (Flewelling),e,34.0975,231.7189,70.4837,138.4246,0.0006052,0.98860267,0.0000,05/11.8510/2019,2000,g 13.0,4.0
# From MPC115885
C/2019 E3 (ATLAS),h,11/11.7577/2023,84.2328,347.1798,280.7819,1.008557,10.287664,2000,2.5,4.0
# From MPC117071
C/2019 F1 (ATLAS-Africano),h,06/22.8000/2021,54.1725,38.7265,251.0992,1.003159,3.596674,2000,5.5,4.0
# From MPC115885
C/2019 F2 (ATLAS),e,19.1882,175.8691,10.9632,16.53052,0.0146647,0.86492603,1.3063,12/07.0/2019,2000,g 12.0,4.0
# From MPC115885
A/2019 G2,e,159.2152,208.1461,82.6086,850.5459,0.0000397,0.99730458,0.0000,12/09.9822/2019,2000,g 16.5,2.0
# From MPC118094
A/2019 G4,h,09/15.6701/2018,138.3810,130.4674,287.8737,1.000401,5.858660,2000,13.0,2.0
# From MPC114607
P/2019 GG21 (PANSTARRS),e,6.0841,340.6063,208.3129,7.463244,0.0483407,0.47275148,10.2035,12/07.0/2019,2000,g 12.0,4.0
# From MPC115885
C/2019 H1 (NEOWISE),e,104.5792,269.1850,19.2813,225.5422,0.0002910,0.99182043,0.0000,04/27.7288/2019,2000,g 15.5,4.0
# From MPC118094
C/2019 J1 (Lemmon),e,24.5507,98.0882,167.7788,70.59477,0.0016617,0.96489074,0.4017,12/07.0/2019,2000,g 12.0,4.0
# From MPC115885
C/2019 J2 (Palomar),e,105.1358,25.4711,98.7074,710.7348,0.0000520,0.99757020,0.0000,07/19.7296/2019,2000,g 13.0,4.0
# From MPC117071
C/2019 J3 (ATLAS),e,131.4137,270.5174,16.5459,87616,0.0000000,0.99997291,0.0000,08/01.8694/2019,2000,g 13.5,4.0
# From MPC117071
C/2019 JU6 (ATLAS),e,148.2934,21.7363,94.8699,334.0224,0.0001615,0.99387809,0.0000,05/31.8745/2019,2000,g 14.5,4.0
# From MPC117071
C/2019 K1 (ATLAS),e,87.1460,73.3748,265.7102,8378,0.0000013,0.99975979,0.0000,02/12.9587/2020,2000,g 10.0,4.0
# From MPC118095
C/2019 K4 (Ye),e,105.3036,180.1651,139.7725,2175,0.0000097,0.99896101,0.0000,06/16.4168/2019,2000,g 12.5,4.0
# From MPC118095
C/2019 K5 (Young),e,15.3150,177.1867,174.9212,152.4472,0.0005236,0.98665059,0.0000,06/22.7600/2019,2000,g 13.0,4.0
# From MPC117071
A/2019 K6,e,132.3791,42.9382,187.5961,1634,0.0000149,0.99759502,0.0000,05/20.0664/2020,2000,g 13.6,2.0
# From MPC118095
C/2019 K7 (Smith),h,06/16.8100/2020,103.4966,307.9163,27.2772,1.002047,4.475063,2000,6.2,4.0
# From MPC117071
C/2019 K8 (ATLAS),e,93.2224,291.0455,85.3580,1547,0.0000162,0.99793520,0.0000,07/21.2440/2019,2000,g 11.5,4.0
# From MPC118095
C/2019 L1 (PANSTARRS),e,9.9934,254.4080,49.9254,9.837154,0.0319448,0.70619030,3.7600,12/07.0/2019,2000,g 13.5,4.0
# From MPC115886
C/2019 L2 (NEOWISE),e,152.1878,12.5558,18.7474,25.01309,0.0078787,0.93522119,1.9621,12/07.0/2019,2000,g 16.0,4.0
# From MPC118095
C/2019 L3 (ATLAS),h,01/09.9033/2022,48.3663,290.7855,171.6822,1.000330,3.552156,2000,4.5,4.0
# From MPC118095
C/2019 LB7 (Kleyna),e,164.2324,3.2879,335.9057,35.10162,0.0047393,0.92926102,1.2073,12/07.0/2019,2000,g 17.0,4.0
# From MPC118095
P/2019 M2 (ATLAS),e,12.2818,307.6018,332.5260,3.025413,0.1872953,0.64849027,31.3406,12/07.0/2019,2000,g 21.2,4.0
# From MPC118095
C/2019 M3 (ATLAS),h,01/03.0435/2019,99.4373,154.8959,87.9411,1.002107,2.418084,2000,12.2,4.0
# From MPC118095
C/2019 N1 (ATLAS),e,82.4241,13.5803,193.4461,13524,0.0000006,0.99987397,0.0000,12/01.7891/2020,2000,g  7.5,4.0
# From MPC118095
A/2019 O2,e,93.2870,48.3462,129.6467,57.46076,0.0022628,0.83149046,357.2457,12/07.0/2019,2000,g  9.5,2.0
# From MPC118095
A/2019 O3,h,03/06.8407/2021,89.8149,300.3810,59.9880,1.001318,8.820059,2000,10.0,2.0
# From MPC117072
A/2019 O4,e,115.0843,354.9176,61.7989,32.87352,0.0052292,0.88913697,359.6606,12/07.0/2019,2000,g 15.5,2.0
# From MPC118096
A/2019 Q1,e,155.7157,42.3322,55.9206,3182,0.0000055,0.99842973,0.0000,07/19.8422/2020,2000,g 12.5,2.0
# From MPC117072
A/2019 Q2,e,159.0273,187.9553,176.2644,57.96150,0.0022335,0.97829837,0.0000,07/22.3628/2019,2000,g 18.0,2.0
# From MPC117072
C/2019 Q3 (PANSTARRS),h,08/20.8245/2018,65.5328,151.3254,152.6277,1.004687,7.250306,2000,8.5,4.0
# From MPC117072
P/2019 S2 (PANSTARRS),e,10.4732,93.1262,216.7160,4.734117,0.0956854,0.20680695,27.6846,12/07.0/2019,2000,g 13.5,4.0
# From MPC118096
P/2019 S3 (PANSTARRS),e,8.6925,150.1686,212.9575,3.413506,0.1562799,0.47068886,16.0799,12/07.0/2019,2000,g 18.3,4.0
# From MPC118096
A/2019 S4,e,92.0280,63.1721,71.3707,248.0878,0.0002522,0.98612844,0.0000,04/07.9898/2020,2000,g 14.5,2.0
# From MPC118096
A/2019 T1,e,120.8688,6.9495,90.9890,38.18231,0.0041774,0.88784562,358.3121,12/07.0/2019,2000,g 13.0,2.0
# From MPC118096
A/2019 T2,e,111.4646,155.6400,239.4017,1527,0.0000165,0.99826708,0.0000,04/22.4177/2021,2000,g 12.5,2.0
# From MPC118096
C/2019 T3 (ATLAS),e,121.8619,139.5107,112.2493,18663,0.0000004,0.99968137,0.0000,03/02.3666/2021,2000,g  6.8,4.0
# From MPC118096
C/2019 T4 (ATLAS),e,53.6169,199.9866,351.1858,1108,0.0000267,0.99617080,0.0000,06/09.2701/2022,2000,g  5.0,4.0
# From MPC118096
C/2019 T5 (ATLAS),e,33.4242,247.6866,189.5449,7.895355,0.0444270,0.80645786,5.6856,12/07.0/2019,2000,g 15.0,4.0
# From MPC118096
P/2019 T6 (PANSTARRS),e,18.6975,71.3097,328.9177,5.431708,0.0778573,0.62223379,2.2753,12/07.0/2019,2000,g 15.5,4.0
# From MPC118096
P/2019 U4 (PANSTARRS),e,11.6910,200.0387,180.9540,3.519707,0.1492603,0.47522960,11.8890,12/07.0/2019,2000,g 19.0,4.0
# From MPC118097
A/2019 U5,e,113.5217,2.6842,181.6745,472.8824,0.0000958,0.99229836,0.0000,04/07.1881/2023,2000,g 10.0,2.0
# From MPC118097
C/2019 V1 (Borisov),p,07/16.3366/2020,61.9003,51.0667,3.102588,83.2114,2000,11.0,4.0
# From  98, 1083
1P/Halley,e,162.3213,58.1261,111.0630,17.86805,0.0130493,0.96631714,161.5434,12/07.0/2019,2000,g  4.0,6.0
# From MPC118097
2P/Encke,e,11.7649,334.5537,186.5640,2.215098,0.2989610,0.84800165,299.6554,12/07.0/2019,2000,g 11.5,6.0
# From MPC 92275
4P/Faye,e,8.0298,193.6131,206.6422,3.819477,0.1320378,0.57945772,275.2895,12/07.0/2019,2000,g  8.0,6.0
# From MPC 95735
6P/d'Arrest,e,19.5090,138.9276,178.0724,3.498710,0.1506060,0.61242169,261.9783,12/07.0/2019,2000,g  7.5,16.0
# From MPEC 2015-E14
7P/Pons-Winnecke,e,22.3650,93.3812,172.5514,3.416077,0.1561035,0.63854468,276.1644,12/07.0/2019,2000,g 10.0,6.0
# From MPC 75715
8P/Tuttle,e,54.9123,270.2066,207.4992,5.699681,0.0724316,0.81992806,314.3746,12/07.0/2019,2000,g  9.0,4.0
# From MPC114607
9P/Tempel,e,10.4737,68.7378,179.3015,3.147380,0.1765145,0.50959866,215.5016,12/07.0/2019,2000,g  5.5,10.0
# From MPC114607
